CZ-2C R/B               
1 54039U 22132E   26023.97891920  .00046707  00000+0  62038-3 0  9994
2 54039  97.2955  26.0810 0016622 254.8803 105.0615 15.57919779183408
GSLV R/B                
1 54149U 22138AN  26023.85540667  .00005272  00000+0  46110-3 0  9993
2 54149  87.3846 181.3671 0020091 319.3973  40.5759 14.96410690177224
XRISM                   
1 57800U 23137A   26023.85878998  .00008713  00000+0  50440-3 0  9995
2 57800  31.0008 213.4988 0007993 309.5552  50.4380 15.10893452131009
ACS3                    
1 59588U 24077B   26023.82416976  .00031076  00000+0  25906-1 0  9990
2 59588  97.2340 335.0170 0051016 225.5463 134.1521 13.87664800 87972
SZ-21 MODULE            
1 66515U 25246C   26023.62692655  .00042139  00000+0  41574-3 0  9998
2 66515  41.4756 120.0416 0003123 226.9812 133.0767 15.65132794 11007
