CCSDS_OMM_VERS = 2.0
CREATION_DATE  = 
ORIGINATOR     = 

OBJECT_NAME    = CZ-2C R/B
OBJECT_ID      = 2022-132E
CENTER_NAME    = EARTH
REF_FRAME      = TEME
TIME_SYSTEM    = UTC
MEAN_ELEMENT_THEORY = SGP/SGP4

EPOCH          = 2026-01-23T23:29:38.618880
MEAN_MOTION    = 15.57919779
ECCENTRICITY   = .0016622
INCLINATION    = 97.2955
RA_OF_ASC_NODE = 26.0810
ARG_OF_PERICENTER = 254.8803
MEAN_ANOMALY   = 105.0615

EPHEMERIS_TYPE = 0
CLASSIFICATION_TYPE = U
NORAD_CAT_ID   = 54039
ELEMENT_SET_NO = 999
REV_AT_EPOCH   = 18340
BSTAR          = .62038E-3
MEAN_MOTION_DOT = .46707E-3
MEAN_MOTION_DDOT = 0

CCSDS_OMM_VERS = 2.0
CREATION_DATE  = 
ORIGINATOR     = 

OBJECT_NAME    = GSLV R/B
OBJECT_ID      = 2022-138AN
CENTER_NAME    = EARTH
REF_FRAME      = TEME
TIME_SYSTEM    = UTC
MEAN_ELEMENT_THEORY = SGP/SGP4

EPOCH          = 2026-01-23T20:31:47.136288
MEAN_MOTION    = 14.96410690
ECCENTRICITY   = .0020091
INCLINATION    = 87.3846
RA_OF_ASC_NODE = 181.3671
ARG_OF_PERICENTER = 319.3973
MEAN_ANOMALY   = 40.5759

EPHEMERIS_TYPE = 0
CLASSIFICATION_TYPE = U
NORAD_CAT_ID   = 54149
ELEMENT_SET_NO = 999
REV_AT_EPOCH   = 17722
BSTAR          = .4611E-3
MEAN_MOTION_DOT = .5272E-4
MEAN_MOTION_DDOT = 0

CCSDS_OMM_VERS = 2.0
CREATION_DATE  = 
ORIGINATOR     = 

OBJECT_NAME    = XRISM
OBJECT_ID      = 2023-137A
CENTER_NAME    = EARTH
REF_FRAME      = TEME
TIME_SYSTEM    = UTC
MEAN_ELEMENT_THEORY = SGP/SGP4

EPOCH          = 2026-01-23T20:36:39.454272
MEAN_MOTION    = 15.10893452
ECCENTRICITY   = .0007993
INCLINATION    = 31.0008
RA_OF_ASC_NODE = 213.4988
ARG_OF_PERICENTER = 309.5552
MEAN_ANOMALY   = 50.4380

EPHEMERIS_TYPE = 0
CLASSIFICATION_TYPE = U
NORAD_CAT_ID   = 57800
ELEMENT_SET_NO = 999
REV_AT_EPOCH   = 13100
BSTAR          = .5044E-3
MEAN_MOTION_DOT = .8713E-4
MEAN_MOTION_DDOT = 0

CCSDS_OMM_VERS = 2.0
CREATION_DATE  = 
ORIGINATOR     = 

OBJECT_NAME    = ACS3
OBJECT_ID      = 2024-077B
CENTER_NAME    = EARTH
REF_FRAME      = TEME
TIME_SYSTEM    = UTC
MEAN_ELEMENT_THEORY = SGP/SGP4

EPOCH          = 2026-01-23T19:46:48.267264
MEAN_MOTION    = 13.87664800
ECCENTRICITY   = .00510166
INCLINATION    = 97.2340
RA_OF_ASC_NODE = 335.0170
ARG_OF_PERICENTER = 225.5463
MEAN_ANOMALY   = 134.1521

EPHEMERIS_TYPE = 0
CLASSIFICATION_TYPE = U
NORAD_CAT_ID   = 59588
ELEMENT_SET_NO = 999
REV_AT_EPOCH   = 8797
BSTAR          = .25906285E-1
MEAN_MOTION_DOT = .31076E-3
MEAN_MOTION_DDOT = 0

CCSDS_OMM_VERS = 2.0
CREATION_DATE  = 
ORIGINATOR     = 

OBJECT_NAME    = SZ-21 MODULE
OBJECT_ID      = 2025-246C
CENTER_NAME    = EARTH
REF_FRAME      = TEME
TIME_SYSTEM    = UTC
MEAN_ELEMENT_THEORY = SGP/SGP4

EPOCH          = 2026-01-23T15:02:46.453920
MEAN_MOTION    = 15.65132794
ECCENTRICITY   = .00031237
INCLINATION    = 41.4756
RA_OF_ASC_NODE = 120.0416
ARG_OF_PERICENTER = 226.9812
MEAN_ANOMALY   = 133.0767

EPHEMERIS_TYPE = 0
CLASSIFICATION_TYPE = U
NORAD_CAT_ID   = 66515
ELEMENT_SET_NO = 999
REV_AT_EPOCH   = 1100
BSTAR          = .41574126E-3
MEAN_MOTION_DOT = .42139E-3
MEAN_MOTION_DDOT = 0

